[{"OBJECT_NAME":"STARLINK-1470","OBJECT_ID":"2020-038AU","EPOCH":"2026-03-09T14:36:51.476832","MEAN_MOTION":15.2807486,"ECCENTRICITY":0.0002444,"INCLINATION":53.048,"RA_OF_ASC_NODE":174.6971,"ARG_OF_PERICENTER":12.8687,"MEAN_ANOMALY":347.2373,"EPHEMERIS_TYPE":0,"CLASSIFICATION_TYPE":"U","NORAD_CAT_ID":45772,"ELEMENT_SET_NO":999,"REV_AT_EPOCH":31706,"BSTAR":0.0019687,"MEAN_MOTION_DOT":0.00054678,"MEAN_MOTION_DDOT":0},{"OBJECT_NAME":"STARLINK-30532","OBJECT_ID":"2023-158V","EPOCH":"2026-03-09T06:07:37.137216","MEAN_MOTION":15.26732748,"ECCENTRICITY":7.652e-5,"INCLINATION":43.0022,"RA_OF_ASC_NODE":29.483,"ARG_OF_PERICENTER":276.0895,"MEAN_ANOMALY":83.9869,"EPHEMERIS_TYPE":0,"CLASSIFICATION_TYPE":"U","NORAD_CAT_ID":58070,"ELEMENT_SET_NO":999,"REV_AT_EPOCH":13350,"BSTAR":0.00015373229,"MEAN_MOTION_DOT":3.865e-5,"MEAN_MOTION_DDOT":0}]
